TIANMU-1 20             
1 58661U 23208B   26194.30429949  .00004795  00000+0  15221-3 0  9991
2 58661  97.4466 311.4092 0006163 219.5646 140.5147 15.33146351141429
TIANMU-1 21             
1 58662U 23208C   26194.31790500  .00005744  00000+0  16866-3 0  9998
2 58662  97.4526 314.2181 0006529 211.2612 148.8244 15.35530207141579
TIANMU-1 22             
1 58663U 23208D   26194.27759368  .00004428  00000+0  14859-3 0  9999
2 58663  97.4521 310.6334 0002592 227.3459 132.7564 15.31410404141320
TIANMU-1 15             
1 58700U 24004A   26194.31230457  .00003184  00000+0  12331-3 0  9995
2 58700  97.4667  20.5030 0005904 236.6996 123.3678 15.26902024139767
TIANMU-1 16             
1 58701U 24004B   26194.30189838  .00003076  00000+0  11889-3 0  9998
2 58701  97.4615  19.7102 0004370 254.7378 105.3378 15.27004847139766
TIANMU-1 17             
1 58702U 24004C   26194.28737804  .00003222  00000+0  12442-3 0  9997
2 58702  97.4641  20.1903 0003866 261.8162  98.2638 15.27002954139755
TIANMU-1 18             
1 58703U 24004D   26194.26335969  .00003010  00000+0  11671-3 0  9990
2 58703  97.4659  20.4287 0003617 233.9087 126.1817 15.26918153139759
INSAT-3DS               
1 58990U 24033A   26194.07825079 -.00000157  00000+0  00000+0 0  9995
2 58990   0.0973 265.1388 0001027 226.0543 270.0098  1.00271086 47324
METEOR-M2 4             
1 59051U 24039A   26194.28029972 -.00000025  00000+0  82661-5 0  9994
2 59051  98.7024 153.2523 0008245  93.5192 266.6929 14.22432021122973
GOES 19                 
1 60133U 24119A   26194.32752903 -.00000251  00000+0  00000+0 0  9990
2 60133   0.0016 253.6126 0000468 323.1556 117.1493  1.00271967  7220
MTG-S1                  
1 64723U 25143A   26194.27574167 -.00000010  00000+0  00000+0 0  9998
2 64723   0.5855 344.6471 0003499 261.9952 143.3604  1.00273091  3686
METOP-SGA1              
1 65159U 25172A   26194.00264820  .00000012  00000+0  25896-4 0  9993
2 65159  98.6631 253.1845 0007194 338.8709  21.2169 14.19818960 47456
