OBJECT_NAME,OBJECT_ID,EPOCH,MEAN_MOTION,ECCENTRICITY,INCLINATION,RA_OF_ASC_NODE,ARG_OF_PERICENTER,MEAN_ANOMALY,EPHEMERIS_TYPE,CLASSIFICATION_TYPE,NORAD_CAT_ID,ELEMENT_SET_NO,REV_AT_EPOCH,BSTAR,MEAN_MOTION_DOT,MEAN_MOTION_DDOT
TIANMU-1 20,2023-208B,2026-07-13T07:18:11.475936,15.33146351,.00061634,97.4466,311.4092,219.5646,140.5147,0,U,58661,999,14142,.1522053E-3,.4795E-4,0
TIANMU-1 21,2023-208C,2026-07-13T07:37:46.992000,15.35530207,.0006529,97.4526,314.2181,211.2612,148.8244,0,U,58662,999,14157,.16865878E-3,.5744E-4,0
TIANMU-1 22,2023-208D,2026-07-13T06:39:44.093952,15.31410404,.00025922,97.4521,310.6334,227.3459,132.7564,0,U,58663,999,14132,.14858835E-3,.4428E-4,0
TIANMU-1 15,2024-004A,2026-07-13T07:29:43.114848,15.26902024,.00059043,97.4667,20.5030,236.6996,123.3678,0,U,58700,999,13976,.1233066E-3,.3184E-4,0
TIANMU-1 16,2024-004B,2026-07-13T07:14:44.020032,15.27004847,.00043701,97.4615,19.7102,254.7378,105.3378,0,U,58701,999,13976,.11888766E-3,.3076E-4,0
TIANMU-1 17,2024-004C,2026-07-13T06:53:49.462656,15.27002954,.00038667,97.4641,20.1903,261.8162,98.2638,0,U,58702,999,13975,.12441731E-3,.3222E-4,0
TIANMU-1 18,2024-004D,2026-07-13T06:19:14.277216,15.26918153,.00036179,97.4659,20.4287,233.9087,126.1817,0,U,58703,999,13975,.11671432E-3,.301E-4,0
INSAT-3DS,2024-033A,2026-07-13T01:52:40.868256,1.00271086,.00010272,0.0973,265.1388,226.0543,270.0098,0,U,58990,999,4732,0,-.157E-5,0
METEOR-M2 4,2024-039A,2026-07-13T06:43:37.895808,14.22432021,.00082454,98.7024,153.2523,93.5192,266.6929,0,U,59051,999,12297,.8266119E-5,-.25E-6,0
GOES 19,2024-119A,2026-07-13T07:51:38.508192,1.00271967,.00004686,0.0016,253.6126,323.1556,117.1493,0,U,60133,999,722,0,-.251E-5,0
MTG-S1,2025-143A,2026-07-13T06:37:04.080288,1.00273091,.00034997,0.5855,344.6471,261.9952,143.3604,0,U,64723,999,368,0,-.1E-6,0
METOP-SGA1,2025-172A,2026-07-13T00:03:48.804480,14.19818960,.00071944,98.6631,253.1845,338.8709,21.2169,0,U,65159,999,4745,.2589644E-4,.12E-6,0
